[
    {
        "Altitude(m)": 702997.1435306815,
        "Argument of Periapsis(deg)": 0.005695060593313534,
        "Eccentricity": 0.0,
        "Inclination(deg)": 45.0,
        "Latitude(deg)": 4.041486336694081,
        "Longitude(deg)": -141.34174237906308,
        "Mean Anomaly(deg)": 5.766608323740386,
        "RAAN(deg)": 314.9946240292709,
        "Satellite Name": "Constellation 1 1386",
        "Satellite Number": 1386,
        "Semi-Major Axis(m)": 7083131.272910544,
        "Time(s)": 95
    },
    {
        "Altitude(m)": 702993.4962403894,
        "Argument of Periapsis(deg)": 0.00575500859955894,
        "Eccentricity": 0.0,
        "Inclination(deg)": 45.0,
        "Latitude(deg)": 4.084597850513081,
        "Longitude(deg)": -141.30277295012206,
        "Mean Anomaly(deg)": 5.827309463990324,
        "RAAN(deg)": 314.99456744010536,
        "Satellite Name": "Constellation 1 1386",
        "Satellite Number": 1386,
        "Semi-Major Axis(m)": 7083131.272910544,
        "Time(s)": 96
    },
    {
        "Altitude(m)": 702989.869792826,
        "Argument of Periapsis(deg)": 0.005814956605804345,
        "Eccentricity": 0.0,
        "Inclination(deg)": 45.0,
        "Latitude(deg)": 4.127707060165646,
        "Longitude(deg)": -141.26379869952603,
        "Mean Anomaly(deg)": 5.88801060424021,
        "RAAN(deg)": 314.9945108509398,
        "Satellite Name": "Constellation 1 1386",
        "Satellite Number": 1386,
        "Semi-Major Axis(m)": 7083131.272910544,
        "Time(s)": 97
    },
    {
        "Altitude(m)": 702986.2641855128,
        "Argument of Periapsis(deg)": 0.00587490461204975,
        "Eccentricity": 0.0,
        "Inclination(deg)": 45.0,
        "Latitude(deg)": 4.170813940273689,
        "Longitude(deg)": -141.22481974655057,
        "Mean Anomaly(deg)": 5.9487117444900965,
        "RAAN(deg)": 314.9944542617742,
        "Satellite Name": "Constellation 1 1386",
        "Satellite Number": 1386,
        "Semi-Major Axis(m)": 7083131.272910544,
        "Time(s)": 98
    },
    {
        "Altitude(m)": 702982.6794158778,
        "Argument of Periapsis(deg)": 0.005934852618295156,
        "Eccentricity": 0.0,
        "Inclination(deg)": 45.0,
        "Latitude(deg)": 4.2139184654498125,
        "Longitude(deg)": -141.18583604236375,
        "Mean Anomaly(deg)": 6.009412884739983,
        "RAAN(deg)": 314.9943976726086,
        "Satellite Name": "Constellation 1 1386",
        "Satellite Number": 1386,
        "Semi-Major Axis(m)": 7083131.272910544,
        "Time(s)": 99
    },
    {
        "Altitude(m)": 702979.1154812574,
        "Argument of Periapsis(deg)": 0.005994800624540561,
        "Eccentricity": 0.0,
        "Inclination(deg)": 45.0,
        "Latitude(deg)": 4.2570206102974755,
        "Longitude(deg)": -141.14684753812259,
        "Mean Anomaly(deg)": 6.070114024989921,
        "RAAN(deg)": 314.99434108344303,
        "Satellite Name": "Constellation 1 1386",
        "Satellite Number": 1386,
        "Semi-Major Axis(m)": 7083131.272910544,
        "Time(s)": 100
    },
    {
        "Altitude(m)": 702975.5723788948,
        "Argument of Periapsis(deg)": 0.006054748630785968,
        "Eccentricity": 0.0,
        "Inclination(deg)": 45.0,
        "Latitude(deg)": 4.300120349410888,
        "Longitude(deg)": -141.10785418497363,
        "Mean Anomaly(deg)": 6.130815165239807,
        "RAAN(deg)": 314.9942844942775,
        "Satellite Name": "Constellation 1 1386",
        "Satellite Number": 1386,
        "Semi-Major Axis(m)": 7083131.272910544,
        "Time(s)": 101
    },
    {
        "Altitude(m)": 702972.0501059412,
        "Argument of Periapsis(deg)": 0.006114696637031373,
        "Eccentricity": 0.0,
        "Inclination(deg)": 45.0,
        "Latitude(deg)": 4.34321765737494,
        "Longitude(deg)": -141.06885593405232,
        "Mean Anomaly(deg)": 6.191516305489694,
        "RAAN(deg)": 314.9942279051119,
        "Satellite Name": "Constellation 1 1386",
        "Satellite Number": 1386,
        "Semi-Major Axis(m)": 7083131.272910544,
        "Time(s)": 102
    },
    {
        "Altitude(m)": 702968.5486594547,
        "Argument of Periapsis(deg)": 0.006174644643276778,
        "Eccentricity": 0.0,
        "Inclination(deg)": 45.0,
        "Latitude(deg)": 4.3863125087650925,
        "Longitude(deg)": -141.0298527364831,
        "Mean Anomaly(deg)": 6.25221744573963,
        "RAAN(deg)": 314.99417131594635,
        "Satellite Name": "Constellation 1 1386",
        "Satellite Number": 1386,
        "Semi-Major Axis(m)": 7083131.272910544,
        "Time(s)": 103
    },
    {
        "Altitude(m)": 702965.0680363999,
        "Argument of Periapsis(deg)": 0.006234592649522184,
        "Eccentricity": 0.0,
        "Inclination(deg)": 45.0,
        "Latitude(deg)": 4.429404878147561,
        "Longitude(deg)": -140.99084471147637,
        "Mean Anomaly(deg)": 6.312918585989518,
        "RAAN(deg)": 314.99411472678077,
        "Satellite Name": "Constellation 1 1386",
        "Satellite Number": 1386,
        "Semi-Major Axis(m)": 7083131.272910544,
        "Time(s)": 104
    },
    {
        "Altitude(m)": 702961.608233654,
        "Argument of Periapsis(deg)": 0.00629454065576759,
        "Eccentricity": 0.0,
        "Inclination(deg)": 45.0,
        "Latitude(deg)": 4.472494740078146,
        "Longitude(deg)": -140.95183147394,
        "Mean Anomaly(deg)": 6.373619726239403,
        "RAAN(deg)": 314.9940581376152,
        "Satellite Name": "Constellation 1 1386",
        "Satellite Number": 1386,
        "Semi-Major Axis(m)": 7083131.272910544,
        "Time(s)": 105
    },
    {
        "Altitude(m)": 702958.1692479928,
        "Argument of Periapsis(deg)": 0.006354488662012995,
        "Eccentricity": 0.0,
        "Inclination(deg)": 45.0,
        "Latitude(deg)": 4.515582069103755,
        "Longitude(deg)": -140.91281314306178,
        "Mean Anomaly(deg)": 6.43432086648929,
        "RAAN(deg)": 314.9940015484496,
        "Satellite Name": "Constellation 1 1386",
        "Satellite Number": 1386,
        "Semi-Major Axis(m)": 7083131.272910544,
        "Time(s)": 106
    },
    {
        "Altitude(m)": 702954.7510761165,
        "Argument of Periapsis(deg)": 0.006414436668258401,
        "Eccentricity": 0.0,
        "Inclination(deg)": 45.0,
        "Latitude(deg)": 4.55866683976122,
        "Longitude(deg)": -140.87378966992102,
        "Mean Anomaly(deg)": 6.4950220067392275,
        "RAAN(deg)": 314.9939449592841,
        "Satellite Name": "Constellation 1 1386",
        "Satellite Number": 1386,
        "Semi-Major Axis(m)": 7083131.272910544,
        "Time(s)": 107
    },
    {
        "Altitude(m)": 702951.3537146125,
        "Argument of Periapsis(deg)": 0.0064743846745038075,
        "Eccentricity": 0.0,
        "Inclination(deg)": 45.0,
        "Latitude(deg)": 4.601749026577497,
        "Longitude(deg)": -140.83476100558536,
        "Mean Anomaly(deg)": 6.555723146989114,
        "RAAN(deg)": 314.9938883701185,
        "Satellite Name": "Constellation 1 1386",
        "Satellite Number": 1386,
        "Semi-Major Axis(m)": 7083131.272910544,
        "Time(s)": 108
    },
    {
        "Altitude(m)": 702947.9771599892,
        "Argument of Periapsis(deg)": 0.0065343326807492125,
        "Eccentricity": 0.0,
        "Inclination(deg)": 45.0,
        "Latitude(deg)": 4.644828604069564,
        "Longitude(deg)": -140.79572710111088,
        "Mean Anomaly(deg)": 6.616424287239,
        "RAAN(deg)": 314.993831780953,
        "Satellite Name": "Constellation 1 1386",
        "Satellite Number": 1386,
        "Semi-Major Axis(m)": 7083131.272910544,
        "Time(s)": 109
    },
    {
        "Altitude(m)": 702944.6214086623,
        "Argument of Periapsis(deg)": 0.0065942806869946176,
        "Eccentricity": 0.0,
        "Inclination(deg)": 45.0,
        "Latitude(deg)": 4.68790554674431,
        "Longitude(deg)": -140.75668790754193,
        "Mean Anomaly(deg)": 6.677125427488938,
        "RAAN(deg)": 314.99377519178734,
        "Satellite Name": "Constellation 1 1386",
        "Satellite Number": 1386,
        "Semi-Major Axis(m)": 7083131.272910544,
        "Time(s)": 110
    },
    {
        "Altitude(m)": 702941.2864569444,
        "Argument of Periapsis(deg)": 0.006654228693240024,
        "Eccentricity": 0.0,
        "Inclination(deg)": 45.0,
        "Latitude(deg)": 4.730979829098732,
        "Longitude(deg)": -140.71764354400779,
        "Mean Anomaly(deg)": 6.737826567738825,
        "RAAN(deg)": 314.99371860262175,
        "Satellite Name": "Constellation 1 1386",
        "Satellite Number": 1386,
        "Semi-Major Axis(m)": 7083131.272910544,
        "Time(s)": 111
    },
    {
        "Altitude(m)": 702937.9723010736,
        "Argument of Periapsis(deg)": 0.006714176699485429,
        "Eccentricity": 0.0,
        "Inclination(deg)": 45.0,
        "Latitude(deg)": 4.774051425618771,
        "Longitude(deg)": -140.67859362533505,
        "Mean Anomaly(deg)": 6.798527707988711,
        "RAAN(deg)": 314.99366201345623,
        "Satellite Name": "Constellation 1 1386",
        "Satellite Number": 1386,
        "Semi-Major Axis(m)": 7083131.272910544,
        "Time(s)": 112
    },
    {
        "Altitude(m)": 702934.6789371844,
        "Argument of Periapsis(deg)": 0.006774124705730835,
        "Eccentricity": 0.0,
        "Inclination(deg)": 45.0,
        "Latitude(deg)": 4.817120310780817,
        "Longitude(deg)": -140.6395382706289,
        "Mean Anomaly(deg)": 6.8592288482385975,
        "RAAN(deg)": 314.99360542429065,
        "Satellite Name": "Constellation 1 1386",
        "Satellite Number": 1386,
        "Semi-Major Axis(m)": 7083131.272910544,
        "Time(s)": 113
    }
]